OBJECT_NAME,OBJECT_ID,EPOCH,MEAN_MOTION,ECCENTRICITY,INCLINATION,RA_OF_ASC_NODE,ARG_OF_PERICENTER,MEAN_ANOMALY,EPHEMERIS_TYPE,CLASSIFICATION_TYPE,NORAD_CAT_ID,ELEMENT_SET_NO,REV_AT_EPOCH,BSTAR,MEAN_MOTION_DOT,MEAN_MOTION_DDOT
ONEWEB-0168,2021-025AC,2026-06-08T10:58:57.283680,13.13469261,.0001874,87.8958,321.9585,100.1736,259.9604,0,U,48068,999,25241,.32099E-3,.13E-5,0
ONEWEB-0173,2021-025AD,2026-06-08T10:46:46.331040,13.13469372,.0001749,87.8952,321.9624,107.4730,252.6591,0,U,48069,999,25265,.83728E-3,.319E-5,0
ONEWEB-0171,2021-025AE,2026-06-08T11:40:23.799648,13.13470259,.0001703,87.8952,321.9637,94.6667,265.4657,0,U,48070,999,25247,-.63692E-3,-.22E-5,0
ONEWEB-0172,2021-025AF,2026-06-08T11:11:08.295072,13.13470522,.0001683,87.8955,321.9567,98.9477,261.1843,0,U,48071,999,25336,-.30816E-3,-.1E-5,0
ONEWEB-0174,2021-025AG,2026-06-08T10:44:20.791104,13.13469822,.0001959,87.8952,321.9600,96.8274,263.3078,0,U,48072,999,25268,.90149E-3,.342E-5,0
ONEWEB-0175,2021-025AH,2026-06-08T11:28:12.643968,13.13470507,.0001463,87.8957,321.9374,95.6533,264.4763,0,U,48073,999,25234,-.83553E-3,-.292E-5,0
ONEWEB-0177,2021-025AJ,2026-06-08T11:45:16.261056,13.13471056,.0001972,87.8953,321.9543,100.4623,259.6728,0,U,48074,999,25253,-.30766E-3,-.1E-5,0
ONEWEB-0178,2021-025AK,2026-06-08T12:12:16.305120,13.13472393,.0001596,87.8939,321.9643,101.5131,258.6178,0,U,48075,999,25258,.6977E-3,.268E-5,0
ONEWEB-0108,2021-025AL,2026-06-08T11:13:34.818240,13.13469584,.0001963,87.8958,321.9493,89.2138,270.9216,0,U,48076,999,25250,-.43468E-3,-.146E-5,0
ONEWEB-0169,2021-025AM,2026-06-08T11:59:53.964096,13.13470228,.0001923,87.8949,321.9519,95.9240,264.2108,0,U,48077,999,25116,.23281E-3,.98E-6,0
ONEWEB-0176,2021-031A,2026-06-08T08:23:02.272704,13.14503087,.0001807,87.8956,291.4611,102.3310,257.8022,0,U,48210,999,24715,.76171E-3,.295E-5,0
ONEWEB-0184,2021-031B,2026-06-08T09:33:48.767040,13.14502462,.0001204,87.8956,291.4516,118.5241,241.6010,0,U,48211,999,24713,-.21168E-3,-.66E-6,0
ONEWEB-0179,2021-031C,2026-06-08T09:22:47.980704,14.25517299,.0218689,87.8982,289.0902,286.2049,71.5180,0,U,48212,999,24779,.35539E-4,.124E-5,0
ONEWEB-0180,2021-031D,2026-06-08T07:48:46.615392,13.14502957,.0002003,87.8956,291.4623,113.7066,246.4274,0,U,48213,999,24705,-.21105E-3,-.65E-6,0
ONEWEB-0218,2021-031E,2026-06-08T08:20:44.808576,13.14502082,.0001425,87.8964,291.4569,127.3941,232.7318,0,U,48214,999,24721,.66596E-3,.26E-5,0
ONEWEB-0209,2021-031F,2026-06-08T08:04:44.640192,13.14505403,.0002032,87.8954,291.4769,105.5868,254.5486,0,U,48215,999,24721,.82899E-4,.44E-6,0
ONEWEB-0198,2021-031G,2026-06-08T09:31:44.134176,13.14502290,.0001835,87.8950,291.4650,113.7510,246.3812,0,U,48216,999,24733,-.54747E-3,-.19E-5,0
ONEWEB-0189,2021-031H,2026-06-08T08:00:11.953152,13.14502772,.000184,87.8960,291.4626,110.6171,249.5157,0,U,48217,999,24706,-.16187E-4,.7E-7,0
ONEWEB-0196,2021-031J,2026-06-08T09:17:50.222112,13.14502818,.0001911,87.8960,291.4611,105.0587,255.0754,0,U,48218,999,24707,-.36027E-3,-.121E-5,0
ONEWEB-0183,2021-031K,2026-06-08T08:41:18.433824,13.14502616,.000206,87.8955,291.4642,97.8914,262.2450,0,U,48219,999,24716,.57974E-3,.228E-5,0
ONEWEB-0185,2021-031L,2026-06-08T09:18:57.792960,13.14502976,.0002283,87.8963,291.4519,104.7123,255.4259,0,U,48220,999,24709,-.23872E-3,-.76E-6,0
ONEWEB-0187,2021-031M,2026-06-08T08:50:14.472384,13.14502281,.0002023,87.8952,291.4724,105.8157,254.3196,0,U,48221,999,24710,.38422E-3,.155E-5,0
ONEWEB-0192,2021-031N,2026-06-08T08:07:01.616160,13.14504932,.0001805,87.8953,291.4688,102.7152,257.4180,0,U,48222,999,24701,.23692E-3,.101E-5,0
ONEWEB-0219,2021-031P,2026-06-08T09:26:56.992416,13.14504367,.0002083,87.8952,291.4496,105.3690,254.7669,0,U,48223,999,24722,-.23531E-3,-.74E-6,0
ONEWEB-0202,2021-031Q,2026-06-08T08:59:34.453248,13.14502362,.000152,87.8959,291.4653,120.4874,239.6406,0,U,48224,999,24720,.16293E-3,.73E-6,0
ONEWEB-0204,2021-031R,2026-06-08T09:48:40.120416,13.14502741,.0002213,87.8958,291.4532,96.9527,263.1855,0,U,48225,999,24710,-.21341E-3,-.66E-6,0
ONEWEB-0205,2021-031S,2026-06-08T09:13:15.407040,13.14504329,.0001971,87.8967,291.4505,107.8222,252.3123,0,U,48226,999,24711,-.26683E-3,-.86E-6,0
ONEWEB-0206,2021-031T,2026-06-08T08:34:27.300288,13.14503406,.0001798,87.8963,291.4580,94.3345,265.7991,0,U,48227,999,24706,.79647E-3,.308E-5,0
ONEWEB-0182,2021-031U,2026-06-08T08:27:36.019008,13.14502241,.000209,87.8958,291.4670,96.9444,263.1923,0,U,48228,999,24727,.8696E-3,.335E-5,0
ONEWEB-0186,2021-031V,2026-06-08T08:43:34.856832,13.14502405,.0001952,87.8968,291.4545,102.9655,257.1692,0,U,48229,999,24722,.68264E-3,.266E-5,0
ONEWEB-0181,2021-031W,2026-06-08T08:11:37.271040,13.14502789,.0001887,87.8946,291.4900,106.3449,253.7888,0,U,48230,999,24707,.23855E-3,.101E-5,0
ONEWEB-0188,2021-031X,2026-06-08T09:06:25.274016,13.14503778,.0001921,87.8951,291.4813,100.8669,259.2677,0,U,48231,999,24698,-.10244E-4,.9E-7,0
ONEWEB-0220,2021-031Y,2026-06-08T08:13:52.656384,13.14501769,.0002119,87.8964,291.4605,106.7079,253.4283,0,U,48232,999,24724,.3161E-3,.13E-5,0
ONEWEB-0165,2021-031Z,2026-06-08T08:54:59.073984,13.14501100,.0001763,87.8960,291.4681,112.3947,247.7370,0,U,48233,999,24720,.27501E-3,.115E-5,0
ONEWEB-0199,2021-031AA,2026-06-08T08:32:10.123008,13.14503785,.0001876,87.8966,291.4566,94.6360,265.4984,0,U,48234,999,24710,.83553E-3,.323E-5,0
ONEWEB-0203,2021-031AB,2026-06-08T08:18:28.071072,13.14502591,.0001719,87.8964,291.4622,99.9911,260.1413,0,U,48235,999,24711,.72402E-3,.281E-5,0
ONEWEB-0197,2021-031AC,2026-06-08T07:41:43.873152,13.14504106,.0002196,87.8951,291.4542,99.3555,260.7824,0,U,48236,999,24702,-.41218E-3,-.14E-5,0
ONEWEB-0194,2021-031AD,2026-06-08T09:01:50.954016,13.14502100,.0001722,87.8961,291.4644,94.9478,265.1849,0,U,48237,999,24720,.16713E-3,.75E-6,0
ONEWEB-0193,2021-031AE,2026-06-08T09:24:40.807872,13.14502588,.0001626,87.8956,291.4518,88.1187,272.0129,0,U,48238,999,24715,-.32362E-3,-.107E-5,0
ONEWEB-0191,2021-031AF,2026-06-08T09:40:40.412064,13.14502745,.0002076,87.8967,291.4480,97.1378,262.9987,0,U,48239,999,24701,-.16601E-3,-.49E-6,0
ONEWEB-0195,2021-031AG,2026-06-08T09:07:32.343744,13.14501215,.0001841,87.8966,291.4532,112.5199,247.6126,0,U,48240,999,24699,-.62323E-4,-.1E-6,0
ONEWEB-0201,2021-031AH,2026-06-08T08:50:37.644000,13.14504123,.000219,87.8957,291.4722,100.7491,259.3885,0,U,48241,999,24722,.40053E-3,.161E-5,0
ONEWEB-0207,2021-031AJ,2026-06-08T08:21:53.455104,13.14502393,.0002157,87.8963,291.4605,101.3123,258.8249,0,U,48242,999,24713,.70128E-3,.273E-5,0
ONEWEB-0208,2021-031AK,2026-06-08T07:55:38.039232,13.14503365,.0001764,87.8957,291.4710,110.8105,249.3214,0,U,48243,999,24714,-.25767E-3,-.83E-6,0
ONEWEB-0200,2021-031AL,2026-06-08T08:52:42.695904,13.14502132,.0001909,87.8964,291.4491,103.1798,256.9545,0,U,48244,999,24707,.31329E-3,.129E-5,0
ONEWEB-0217,2021-031AM,2026-06-08T09:15:32.986080,13.14502236,.0001828,87.8965,291.4505,111.0272,249.1054,0,U,48245,999,24702,-.16846E-3,-.5E-6,0
ONEWEB-0211,2021-045A,2026-06-08T12:35:31.418016,13.16196557,.0001604,87.9005,260.8088,120.6677,239.4612,0,U,48767,999,24330,.57124E-4,.35E-6,0
ONEWEB-0223,2021-045B,2026-06-08T12:32:42.990720,13.15545020,.0001556,87.9009,260.9154,106.7507,253.3794,0,U,48768,999,24326,.13769E-3,.65E-6,0
ONEWEB-0230,2021-045C,2026-06-07T19:25:57.636768,13.15547652,.0002038,87.8999,261.0721,96.3248,263.8114,0,U,48769,999,24343,.46475E-3,.188E-5,0
ONEWEB-0237,2021-045D,2026-06-08T07:56:37.095360,13.15550958,.0001676,87.8997,260.9700,99.8220,260.3100,0,U,48770,999,24322,.17851E-3,.8E-6,0
ONEWEB-0235,2021-045E,2026-06-08T12:48:42.402240,13.15548244,.000154,87.9011,260.9145,103.5365,256.5937,0,U,48771,999,24324,-.61132E-4,-.1E-6,0
ONEWEB-0242,2021-045F,2026-06-08T12:39:34.048224,13.15557962,.0001783,87.9014,260.9117,97.7271,262.4062,0,U,48772,999,24328,.27836E-2,.1061E-4,0
ONEWEB-0241,2021-045G,2026-06-08T12:21:20.177568,13.15548654,.0001693,87.8999,260.9342,112.0879,248.0431,0,U,48773,999,24319,.18433E-3,.82E-6,0
ONEWEB-0243,2021-045H,2026-06-08T13:06:57.441024,13.15548550,.0001589,87.9000,260.9401,88.3691,271.7621,0,U,48774,999,24322,-.10685E-3,-.27E-6,0
ONEWEB-0222,2021-045J,2026-06-08T12:42:59.897952,13.15548477,.0001744,87.9011,260.9101,104.8882,255.2442,0,U,48775,999,24326,-.15611E-3,-.46E-6,0
ONEWEB-0244,2021-045K,2026-06-08T06:02:33.569088,13.15548212,.0001811,87.9013,260.9599,99.9575,260.1760,0,U,48776,999,24379,-.83607E-5,.1E-6,0
ONEWEB-0247,2021-045L,2026-06-08T07:47:29.982048,13.15547063,.0001179,87.8997,260.9788,90.1801,269.9464,0,U,48777,999,24324,.11896E-3,.58E-6,0
ONEWEB-0245,2021-045M,2026-06-08T07:40:39.402336,13.15547047,.0001841,87.9012,260.9583,105.7279,254.4054,0,U,48778,999,24321,-.65184E-4,-.12E-6,0
ONEWEB-0229,2021-045N,2026-06-08T13:02:23.565120,13.15548383,.0001856,87.9009,260.9117,97.3314,262.8027,0,U,48779,999,24327,-.14992E-3,-.44E-6,0
ONEWEB-0228,2021-045P,2026-06-08T04:42:52.392672,13.15550554,.0001845,87.9013,260.9727,101.4741,258.6596,0,U,48780,999,24314,.45258E-3,.183E-5,0
ONEWEB-0232,2021-045Q,2026-06-08T13:13:47.671680,13.15549883,.0001951,87.9010,260.9035,103.5486,256.5862,0,U,48781,999,24351,-.19552E-4,.5E-7,0
ONEWEB-0231,2021-045R,2026-06-08T12:41:51.050976,13.15548776,.0001721,87.9007,260.9211,103.5417,256.5905,0,U,48782,999,24320,.19137E-4,.2E-6,0
ONEWEB-0234,2021-045S,2026-06-08T08:07:51.423168,13.15548418,.0002485,87.9005,260.9407,116.7803,243.3581,0,U,48783,999,24331,.3277E-3,.136E-5,0
ONEWEB-0238,2021-045T,2026-06-08T08:08:13.926048,13.15559353,.0002403,87.9010,260.9347,111.6861,248.4526,0,U,48784,999,24321,-.42472E-2,-.1586E-4,0
ONEWEB-0240,2021-045U,2026-06-08T12:17:53.113056,13.15547707,.0001752,87.9014,260.9102,109.3706,250.7614,0,U,48785,999,24326,.33275E-3,.138E-5,0
ONEWEB-0246,2021-045V,2026-06-08T12:09:55.329696,13.15548893,.0001881,87.9013,260.9159,98.6275,261.5068,0,U,48786,999,24313,.5624E-3,.225E-5,0
ONEWEB-0210,2021-045W,2026-06-08T06:04:49.934208,13.15550304,.000134,87.9009,260.9637,78.4063,281.7217,0,U,48787,999,24314,.21457E-3,.94E-6,0
